{
  "links" : {
    "next" : "https://api.nasa.gov/neo/rest/v1/feed?start_date=2014-03-09&end_date=2014-03-09&detailed=true&api_key=t0TVs3DtDT2H8Oy2Zy8m2eVrNsAVKAexjcZXUckd",
    "prev" : "https://api.nasa.gov/neo/rest/v1/feed?start_date=2014-03-07&end_date=2014-03-07&detailed=true&api_key=t0TVs3DtDT2H8Oy2Zy8m2eVrNsAVKAexjcZXUckd",
    "self" : "https://api.nasa.gov/neo/rest/v1/feed?start_date=2014-03-08&end_date=2014-03-08&detailed=true&api_key=t0TVs3DtDT2H8Oy2Zy8m2eVrNsAVKAexjcZXUckd"
  },
  "element_count" : 12,
  "near_earth_objects" : {
    "2014-03-08" : [ {
      "links" : {
        "self" : "https://api.nasa.gov/neo/rest/v1/neo/3399918?api_key=t0TVs3DtDT2H8Oy2Zy8m2eVrNsAVKAexjcZXUckd"
      },
      "neo_reference_id" : "3399918",
      "name" : "(2008 AH33)",
      "nasa_jpl_url" : "http://ssd.jpl.nasa.gov/sbdb.cgi?sstr=3399918",
      "absolute_magnitude_h" : 19.5,
      "estimated_diameter" : {
        "kilometers" : {
          "estimated_diameter_min" : 0.3346223745,
          "estimated_diameter_max" : 0.7482383761
        },
        "meters" : {
          "estimated_diameter_min" : 334.6223744549,
          "estimated_diameter_max" : 748.2383760735
        },
        "miles" : {
          "estimated_diameter_min" : 0.2079246394,
          "estimated_diameter_max" : 0.464933628
        },
        "feet" : {
          "estimated_diameter_min" : 1097.8424710066,
          "estimated_diameter_max" : 2454.8503937571
        }
      },
      "is_potentially_hazardous_asteroid" : true,
      "close_approach_data" : [ {
        "close_approach_date" : "2014-03-08",
        "epoch_date_close_approach" : 1394265600000,
        "relative_velocity" : {
          "kilometers_per_second" : "23.5042625965",
          "kilometers_per_hour" : "84615.3453475796",
          "miles_per_hour" : "52576.6850022225"
        },
        "miss_distance" : {
          "astronomical" : "0.1866243058",
          "lunar" : "72.5968551636",
          "kilometers" : "27918598",
          "miles" : "17347812"
        },
        "orbiting_body" : "Earth"
      } ],
      "orbital_data" : {
        "orbit_id" : "17",
        "orbit_determination_date" : "2017-04-06 09:04:45",
        "orbit_uncertainty" : "0",
        "minimum_orbit_intersection" : ".0369778",
        "jupiter_tisserand_invariant" : "3.326",
        "epoch_osculation" : "2458000.5",
        "eccentricity" : ".547945248943476",
        "semi_major_axis" : "2.10316491588889",
        "inclination" : "36.77516024716341",
        "ascending_node_longitude" : "335.890867451085",
        "orbital_period" : "1114.059585046842",
        "perihelion_distance" : ".9507456924829676",
        "perihelion_argument" : "176.8977898688782",
        "aphelion_distance" : "3.255584139294813",
        "perihelion_time" : "2457836.067250781946",
        "mean_anomaly" : "53.13520974375038",
        "mean_motion" : ".3231425004838168",
        "equinox" : "J2000"
      }
    }, {
      "links" : {
        "self" : "https://api.nasa.gov/neo/rest/v1/neo/3601343?api_key=t0TVs3DtDT2H8Oy2Zy8m2eVrNsAVKAexjcZXUckd"
      },
      "neo_reference_id" : "3601343",
      "name" : "(2012 EA12)",
      "nasa_jpl_url" : "http://ssd.jpl.nasa.gov/sbdb.cgi?sstr=3601343",
      "absolute_magnitude_h" : 24.9,
      "estimated_diameter" : {
        "kilometers" : {
          "estimated_diameter_min" : 0.0278326768,
          "estimated_diameter_max" : 0.0622357573
        },
        "meters" : {
          "estimated_diameter_min" : 27.8326768072,
          "estimated_diameter_max" : 62.2357573367
        },
        "miles" : {
          "estimated_diameter_min" : 0.0172944182,
          "estimated_diameter_max" : 0.0386714948
        },
        "feet" : {
          "estimated_diameter_min" : 91.3145593761,
          "estimated_diameter_max" : 204.1855621004
        }
      },
      "is_potentially_hazardous_asteroid" : false,
      "close_approach_data" : [ {
        "close_approach_date" : "2014-03-08",
        "epoch_date_close_approach" : 1394265600000,
        "relative_velocity" : {
          "kilometers_per_second" : "20.6260670725",
          "kilometers_per_hour" : "74253.8414609813",
          "miles_per_hour" : "46138.4494344636"
        },
        "miss_distance" : {
          "astronomical" : "0.1875208439",
          "lunar" : "72.9456100464",
          "kilometers" : "28052720",
          "miles" : "17431152"
        },
        "orbiting_body" : "Earth"
      } ],
      "orbital_data" : {
        "orbit_id" : "7",
        "orbit_determination_date" : "2017-04-06 08:50:30",
        "orbit_uncertainty" : "8",
        "minimum_orbit_intersection" : ".0367322",
        "jupiter_tisserand_invariant" : "4.186",
        "epoch_osculation" : "2456002.5",
        "eccentricity" : ".3750881021360361",
        "semi_major_axis" : "1.570997706057932",
        "inclination" : "30.91721041168596",
        "ascending_node_longitude" : "175.0209785150329",
        "orbital_period" : "719.2199958521653",
        "perihelion_distance" : ".9817351580325961",
        "perihelion_argument" : "35.28128980864685",
        "aphelion_distance" : "2.160260254083269",
        "perihelion_time" : "2456033.407668538028",
        "mean_anomaly" : "344.5294058315125",
        "mean_motion" : ".5005422569953095",
        "equinox" : "J2000"
      }
    }, {
      "links" : {
        "self" : "https://api.nasa.gov/neo/rest/v1/neo/3655398?api_key=t0TVs3DtDT2H8Oy2Zy8m2eVrNsAVKAexjcZXUckd"
      },
      "neo_reference_id" : "3655398",
      "name" : "(2013 YR2)",
      "nasa_jpl_url" : "http://ssd.jpl.nasa.gov/sbdb.cgi?sstr=3655398",
      "absolute_magnitude_h" : 24.2,
      "estimated_diameter" : {
        "kilometers" : {
          "estimated_diameter_min" : 0.0384197891,
          "estimated_diameter_max" : 0.0859092601
        },
        "meters" : {
          "estimated_diameter_min" : 38.4197891064,
          "estimated_diameter_max" : 85.9092601232
        },
        "miles" : {
          "estimated_diameter_min" : 0.0238729428,
          "estimated_diameter_max" : 0.0533815229
        },
        "feet" : {
          "estimated_diameter_min" : 126.0491808919,
          "estimated_diameter_max" : 281.8545369825
        }
      },
      "is_potentially_hazardous_asteroid" : false,
      "close_approach_data" : [ {
        "close_approach_date" : "2014-03-08",
        "epoch_date_close_approach" : 1394265600000,
        "relative_velocity" : {
          "kilometers_per_second" : "3.9321305823",
          "kilometers_per_hour" : "14155.6700962359",
          "miles_per_hour" : "8795.7828995195"
        },
        "miss_distance" : {
          "astronomical" : "0.0763315876",
          "lunar" : "29.692987442",
          "kilometers" : "11419043",
          "miles" : "7095464"
        },
        "orbiting_body" : "Earth"
      } ],
      "orbital_data" : {
        "orbit_id" : "9",
        "orbit_determination_date" : "2017-04-06 08:43:12",
        "orbit_uncertainty" : "6",
        "minimum_orbit_intersection" : ".036039",
        "jupiter_tisserand_invariant" : "5.118",
        "epoch_osculation" : "2458000.5",
        "eccentricity" : ".2342994501420863",
        "semi_major_axis" : "1.24851465079394",
        "inclination" : "4.151419360342046",
        "ascending_node_longitude" : "97.50412046193659",
        "orbital_period" : "509.5524467856896",
        "perihelion_distance" : ".9559883546185811",
        "perihelion_argument" : "66.08044970670223",
        "aphelion_distance" : "1.541040946969299",
        "perihelion_time" : "2458250.771016468194",
        "mean_anomaly" : "183.1829392697557",
        "mean_motion" : ".7065023478366512",
        "equinox" : "J2000"
      }
    } ]
  }
}